NORAD_CAT_ID,OBJECT_NAME,OBJECT_TYPE,EPOCH,MEAN_MOTION,ECCENTRICITY,INCLINATION,RA_OF_ASC_NODE,ARG_OF_PERICENTER,MEAN_ANOMALY,BSTAR,MEAN_MOTION_DOT,MEAN_MOTION_DDOT,TLE_LINE0,TLE_LINE1,TLE_LINE2,SEMIMAJOR_AXIS,PERIOD,APOGEE,PERIGEE,DECAYED
49459.0,STARLINK-3141,PAYLOAD,2022-12-03 20:42:08,15.08839727,0.0003686,53.2163,169.451,42.8074,317.3204,1.4010999999999992e-05,-6.6e-07,0.0,0 STARLINK-3141,1 49459U 21104BD  22337.86259845 -.00000066  00000-0  14011-4 0  9997,2 49459  53.2163 169.4510 0003686  42.8074 317.3204 15.08839727 58853,6917.880999999999,95.438,542.2959999999998,537.196,0.0
49459.0,STARLINK-3141,PAYLOAD,2022-12-03 23:52:54,15.08839776,0.0003694,53.2163,168.8563,42.9831,317.1449,1.1434e-05,-1.07e-06,0.0,0 STARLINK-3141,1 49459U 21104BD  22337.99507844 -.00000107  00000-0  11434-4 0  9998,2 49459  53.2163 168.8563 0003694  42.9831 317.1449 15.08839776 59949,6917.880999999999,95.438,542.302,537.191,0.0
49459.0,STARLINK-3141,PAYLOAD,2022-12-04 18:57:32,15.088375400000002,0.0003697,53.2163,165.2878,43.9325,316.196,0.00013274,1.824e-05,0.0,0 STARLINK-3141,1 49459U 21104BD  22338.78995848  .00001824  00000-0  13274-3 0  9990,2 49459  53.2163 165.2878 0003697  43.9325 316.1960 15.08837540 58999,6917.888000000001,95.438,542.31,537.195,0.0
49459.0,STARLINK-3141,PAYLOAD,2022-12-05 06:05:14,15.08843637,0.0003737,53.2164,163.2063,45.0181,315.1113,0.0001599,2.257e-05,0.0,0 STARLINK-3141,1 49459U 21104BD  22339.25363582  .00002257  00000-0  15990-3 0  9995,2 49459  53.2164 163.2063 0003737  45.0181 315.1113 15.08843637 60134,6917.869000000002,95.437,542.319,537.149,0.0
49459.0,STARLINK-3141,PAYLOAD,2022-12-05 18:48:19,15.08848505,0.0003789,53.2153,160.8274,46.2434,313.8871,0.00022414,3.281e-05,0.0,0 STARLINK-3141,1 49459U 21104BD  22339.78355531  .00003281  00000-0  22414-3 0  9995,2 49459  53.2153 160.8274 0003789  46.2434 313.8871 15.08848505 59144,6917.854,95.437,542.341,537.0980000000002,0.0
49459.0,STARLINK-3141,PAYLOAD,2022-12-05 21:59:05,15.08850807,0.0003808,53.2154,160.2327,46.3841,313.7467,0.00023039,3.381e-05,0.0,0 STARLINK-3141,1 49459U 21104BD  22339.91603373  .00003381  00000-0  23039-3 0  9995,2 49459  53.2154 160.2327 0003808  46.3841 313.7467 15.08850807 59163,6917.847,95.437,542.347,537.078,0.0
49459.0,STARLINK-3141,PAYLOAD,2022-12-06 15:28:19,15.08847948,0.0003856,53.2154,156.9616,48.5323,311.5999,0.00010589,1.397e-05,0.0,0 STARLINK-3141,1 49459U 21104BD  22340.64467162  .00001397  00000-0  10589-3 0  9992,2 49459  53.2154 156.9616 0003856  48.5323 311.5999 15.08847948 59278,6917.856,95.437,542.389,537.054,0.0
49459.0,STARLINK-3141,PAYLOAD,2022-12-06 21:49:52,15.08841141,0.0003875,53.2154,155.7724,48.5444,311.588,-7.879e-06,-4.15e-06,0.0,0 STARLINK-3141,1 49459U 21104BD  22340.90963424 -.00000415  00000-0 -78790-5 0  9995,2 49459  53.2154 155.7724 0003875  48.5444 311.5880 15.08841141 60382,6917.877,95.437,542.423,537.061,0.0
49459.0,STARLINK-3141,PAYLOAD,2022-12-07 20:05:15,15.08848481,0.0003674,53.2165,151.6097,51.7743,308.3579,9.6869e-05,1.254e-05,0.0,0 STARLINK-3141,1 49459U 21104BD  22341.83698839  .00001254  00000-0  96869-4 0  9999,2 49459  53.2165 151.6097 0003674  51.7743 308.3579 15.08848481 59456,6917.854,95.437,542.261,537.178,0.0
49459.0,STARLINK-3141,PAYLOAD,2022-12-07 23:16:01,15.088518900000002,0.0003844,53.2165,151.0146,49.4762,310.6564,6.5433e-05,7.53e-06,0.0,0 STARLINK-3141,1 49459U 21104BD  22341.96946598  .00000753  00000-0  65433-4 0  9997,2 49459  53.2165 151.0146 0003844  49.4762 310.6564 15.08851890 60549,6917.844,95.437,542.368,537.05,0.0
49459.0,STARLINK-3141,PAYLOAD,2022-12-08 13:34:30,15.08834799,0.0003689,53.2168,148.3379,51.1595,308.9726,6.403399999999999e-05,7.299999999999999e-06,0.0,0 STARLINK-3141,1 49459U 21104BD  22342.56563486  .00000730  00000-0  64034-4 0  9996,2 49459  53.2168 148.3379 0003689  51.1595 308.9726 15.08834799 59569,6917.896,95.438,542.313,537.2090000000002,0.0
49459.0,STARLINK-3141,PAYLOAD,2022-12-08 19:56:03,15.08835545,0.0003779,53.2168,147.1493,51.0651,309.0677,6.8555e-05,8.02e-06,0.0,0 STARLINK-3141,1 49459U 21104BD  22342.83059499  .00000802  00000-0  68555-4 0  9992,2 49459  53.2168 147.1493 0003779  51.0651 309.0677 15.08835545 60676,6917.894,95.438,542.373,537.145,0.0
49459.0,STARLINK-3141,PAYLOAD,2022-12-09 03:52:58,15.08837835,0.0003614,53.2173,145.6644,56.0721,304.0615,9.5799e-05,1.236e-05,0.0,0 STARLINK-3141,1 49459U 21104BD  22343.16179357  .00001236  00000-0  95799-4 0  9997,2 49459  53.2173 145.6644 0003614  56.0721 304.0615 15.08837835 59651,6917.887,95.438,542.252,537.252,0.0
49459.0,STARLINK-3141,PAYLOAD,2022-12-09 19:46:49,15.08834145,0.0001839,53.2163,142.6904,47.268,312.8467,-0.0001508,-2.687e-05,0.0,0 STARLINK-3141,1 49459U 21104BD  22343.82418662 -.00002687  00000-0 -15080-3 0  9992,2 49459  53.2163 142.6904 0001839  47.2680 312.8467 15.08834145 59753,6917.898,95.438,541.035,538.491,0.0
49459.0,STARLINK-3141,PAYLOAD,2022-12-10 18:02:14,15.08837189,0.0003913,53.2161,138.525,51.5316,308.6026,0.00011001,1.462e-05,0.0,0 STARLINK-3141,1 49459U 21104BD  22344.75155795  .00001462  00000-0  11001-3 0  9997,2 49459  53.2161 138.5250 0003913  51.5316 308.6026 15.08837189 60968,6917.889,95.438,542.461,537.047,0.0
49459.0,STARLINK-3141,PAYLOAD,2022-12-11 09:56:05,15.08845568,0.0003706,53.2163,135.5495,54.0758,306.0577,0.00018904,2.722e-05,0.0,0 STARLINK-3141,1 49459U 21104BD  22345.41395349  .00002722  00000-0  18904-3 0  9991,2 49459  53.2163 135.5495 0003706  54.0758 306.0577 15.08845568 59990,6917.863,95.437,542.2919999999998,537.165,0.0
49459.0,STARLINK-3141,PAYLOAD,2022-12-11 19:28:24,15.08840678,0.0003766,53.217,133.7667,52.0458,308.0874,0.00017486,2.495e-05,0.0,0 STARLINK-3141,1 49459U 21104BD  22345.81139705  .00002495  00000-0  17486-3 0  9998,2 49459  53.2170 133.7667 0003766  52.0458 308.0874 15.08840678 61127,6917.878000000002,95.438,542.349,537.138,0.0
49459.0,STARLINK-3141,PAYLOAD,2022-12-11 22:39:10,15.08840779,0.0003762,53.2168,133.1719,52.344,307.7893,0.00016674,2.366e-05,0.0,0 STARLINK-3141,1 49459U 21104BD  22345.94387730  .00002366  00000-0  16674-3 0  9990,2 49459  53.2168 133.1719 0003762  52.3440 307.7893 15.08840779 60078,6917.878000000002,95.438,542.346,537.141,0.0
49459.0,STARLINK-3141,PAYLOAD,2022-12-12 19:19:11,15.08844108,0.0003543999999999,53.217,129.3056,55.4766,304.656,-6.1342e-05,-1.265e-05,0.0,0 STARLINK-3141,1 49459U 21104BD  22346.80499369 -.00001265  00000-0 -61342-4 0  9990,2 49459  53.2170 129.3056 0003544  55.4766 304.6560 15.08844108 60207,6917.868,95.437,542.185,537.281,0.0
49459.0,STARLINK-3141,PAYLOAD,2022-12-13 03:16:07,15.08844347,0.0003426,53.2169,127.8192,56.4692,303.6627,7.8409e-05,9.59e-06,0.0,0 STARLINK-3141,1 49459U 21104BD  22347.13619321  .00000959  00000-0  78409-4 0  9998,2 49459  53.2169 127.8192 0003426  56.4692 303.6627 15.08844347 61329,6917.8669999999975,95.437,542.102,537.362,0.0
49459.0,STARLINK-3141,PAYLOAD,2022-12-13 12:48:23,15.08879338,0.0003304,53.2164,126.0352,52.3657,307.7634,0.00057254,8.846e-05,0.0,0 STARLINK-3141,1 49459U 21104BD  22347.53360883  .00008846  00000-0  57254-3 0  9995,2 49459  53.2164 126.0352 0003304  52.3657 307.7634 15.08879338 60313,6917.76,95.435,541.911,537.34,0.0
49459.0,STARLINK-3141,PAYLOAD,2022-12-13 15:59:09,15.08885633,0.0003215,53.2169,125.4396,60.0222,300.1089,0.00060623,9.385e-05,0.0,0 STARLINK-3141,1 49459U 21104BD  22347.66608216  .00009385  00000-0  60623-3 0  9997,2 49459  53.2169 125.4396 0003215  60.0222 300.1089 15.08885633 61401,6917.741,95.435,541.83,537.382,0.0
49459.0,STARLINK-3141,PAYLOAD,2022-12-13 19:09:56,15.08852846,0.0003028,53.2176,124.8458,53.4024,306.7247,0.0001212,1.642e-05,0.0,0 STARLINK-3141,1 49459U 21104BD  22347.79857472  .00001642  00000-0  12120-3 0  9998,2 49459  53.2176 124.8458 0003028  53.4024 306.7247 15.08852846 60350,6917.840999999999,95.437,541.8009999999998,537.611,0.0
49459.0,STARLINK-3141,PAYLOAD,2022-12-14 09:28:26,15.08833587,0.000284,53.2183,122.1691,57.4799,302.6467,-3.5746999999999995e-05,-8.57e-06,0.0,0 STARLINK-3141,1 49459U 21104BD  22348.39475037 -.00000857  00000-0 -35747-4 0  9998,2 49459  53.2183 122.1691 0002840  57.4799 302.6467 15.08833587 61511,6917.9,95.438,541.73,537.8,0.0
49459.0,STARLINK-3141,PAYLOAD,2022-12-14 15:49:59,15.08827887,0.0003178,53.2176,120.9811,55.1165,305.0126,-2.7755e-05,-7.299999999999999e-06,0.0,0 STARLINK-3141,1 49459U 21104BD  22348.65971608 -.00000730  00000-0 -27755-4 0  9992,2 49459  53.2176 120.9811 0003178  55.1165 305.0126 15.08827887 60480,6917.917,95.438,541.981,537.5840000000002,0.0
49459.0,STARLINK-3141,PAYLOAD,2022-12-15 09:19:12,15.08855232,0.0002994,53.2158,117.7085,53.5585,306.5683,-0.00024312,-4.158e-05,0.0,0 STARLINK-3141,1 49459U 21104BD  22349.38834354 -.00004158  00000-0 -24312-3 0  9992,2 49459  53.2158 117.7085 0002994  53.5585 306.5683 15.08855232 61660,6917.834,95.437,541.77,537.628,0.0
49459.0,STARLINK-3141,PAYLOAD,2022-12-15 14:05:22,15.08853432,0.0002944,53.2152,116.8165,50.3652,309.76,-0.00022802,-3.917e-05,0.0,0 STARLINK-3141,1 49459U 21104BD  22349.58706223 -.00003917  00000-0 -22802-3 0  9991,2 49459  53.2152 116.8165 0002944  50.3652 309.7600 15.08853432 60627,6917.839,95.437,541.741,537.668,0.0
49459.0,STARLINK-3141,PAYLOAD,2022-12-15 18:51:31,15.08836854,0.0002868,53.2165,115.9258,55.28100000000001,304.8452,-0.00025868,-4.403e-05,0.0,0 STARLINK-3141,1 49459U 21104BD  22349.78578578 -.00004403  00000-0 -25868-3 0  9999,2 49459  53.2165 115.9258 0002868  55.2810 304.8452 15.08836854 61721,6917.89,95.438,541.739,537.771,0.0
49459.0,STARLINK-3141,PAYLOAD,2022-12-16 13:56:10,15.08829057,0.0002759,53.2166,112.3581,49.2189,310.9042,0.0001758,2.51e-05,0.0,0 STARLINK-3141,1 49459U 21104BD  22350.58067485  .00002510  00000-0  17580-3 0  9996,2 49459  53.2166 112.3581 0002759  49.2189 310.9042 15.08829057 60777,6917.9140000000025,95.438,541.687,537.87,0.0
